CTC2_L_00362016-03
1 52737U 26453QC  26037.47795139  .00000000  00000+0  00000-0 0  9996
2 52737  95.0000 180.0000 0000000   0.0000   0.0000 13.29142284    16
CTC2_L_00362016-04
1 52738U 25808OX  26037.47795139  .00000000  00000+0  00000-0 0  9990
2 52738  95.0000 180.0000 0000000   0.0000  90.0000 13.29142284    16
CTC2_L_00362017-01
1 52739U 26688MX  26037.47795139  .00000000  00000+0  00000-0 0  9998
2 52739  95.0000 192.0000 0000000   0.0000 192.0000 13.29142284    13
CTC2_L_00362017-02
1 52740U 23394ZP  26037.47795139  .00000000  00000+0  00000-0 0  9991
2 52740  95.0000 192.0000 0000000   0.0000 282.0000 13.29142284    15
CTC2_L_00362017-03
1 52741U 23021VY  26037.47795139  .00000000  00000+0  00000-0 0  9999
2 52741  95.0000 192.0000 0000000   0.0000  12.0000 13.29142284    17
CTC2_L_00362017-04
1 52742U 22268SS  26037.47795139  .00000000  00000+0  00000-0 0  9992
2 52742  95.0000 192.0000 0000000   0.0000 102.0000 13.29142284    18
CTC2_L_00362018-01
1 52743U 24450SG  26037.47795139  .00000000  00000+0  00000-0 0  9998
2 52743  95.0000 204.0000 0000000   0.0000 204.0000 13.29142284    16
CTC2_L_00362018-02
1 52744U 26220WH  26037.47795139  .00000000  00000+0  00000-0 0  9996
2 52744  95.0000 204.0000 0000000   0.0000 294.0000 13.29142284    16
CTC2_L_00362018-03
1 52745U 25751VN  26037.47795139  .00000000  00000+0  00000-0 0  9995
2 52745  95.0000 204.0000 0000000   0.0000  24.0000 13.29142284    18
CTC2_L_00362018-04
1 52746U 24735NP  26037.47795139  .00000000  00000+0  00000-0 0  9997
2 52746  95.0000 204.0000 0000000   0.0000 114.0000 13.29142284    19
CTC2_L_00362019-01
1 52747U 26237ZQ  26037.47795139  .00000000  00000+0  00000-0 0  9997
2 52747  95.0000 216.0000 0000000   0.0000 216.0000 13.29142284    16
CTC2_L_00362019-02
1 52748U 22739RS  26037.47795139  .00000000  00000+0  00000-0 0  9991
2 52748  95.0000 216.0000 0000000   0.0000 306.0000 13.29142284    17
CTC2_L_00362019-03
1 52749U 22820JP  26037.47795139  .00000000  00000+0  00000-0 0  9993
2 52749  95.0000 216.0000 0000000   0.0000  36.0000 13.29142284    18
CTC2_L_00362019-04
1 52750U 22662UC  26037.47795139  .00000000  00000+0  00000-0 0  9999
2 52750  95.0000 216.0000 0000000   0.0000 126.0000 13.29142284    10
CTC2_L_00362020-01
1 52751U 22490YF  26037.47795139  .00000000  00000+0  00000-0 0  9999
2 52751  95.0000 228.0000 0000000   0.0000 228.0000 13.29142284    17
CTC2_L_00362020-02
1 52752U 23055PG  26037.47795139  .00000000  00000+0  00000-0 0  9998
2 52752  95.0000 228.0000 0000000   0.0000 318.0000 13.29142284    18
CTC2_L_00362020-03
1 52753U 25227MZ  26037.47795139  .00000000  00000+0  00000-0 0  9992
2 52753  95.0000 228.0000 0000000   0.0000  48.0000 13.29142284    19
CTC2_L_00362020-04
1 52754U 26579MF  26037.47795139  .00000000  00000+0  00000-0 0  9994
2 52754  95.0000 228.0000 0000000   0.0000 138.0000 13.29142284    10
CTC2_L_00362021-01
1 52755U 26492EA  26037.47795139  .00000000  00000+0  00000-0 0  9999
2 52755  95.0000 240.0000 0000000   0.0000 240.0000 13.29142284    19
CTC2_L_00362021-02
1 52756U 25585BA  26037.47795139  .00000000  00000+0  00000-0 0  9992
2 52756  95.0000 240.0000 0000000   0.0000 330.0000 13.29142284    10
CTC2_L_00362021-03
1 52757U 24178DV  26037.47795139  .00000000  00000+0  00000-0 0  9990
2 52757  95.0000 240.0000 0000000   0.0000  60.0000 13.29142284    11
CTC2_L_00362021-04
1 52758U 26445TD  26037.47795139  .00000000  00000+0  00000-0 0  9990
2 52758  95.0000 240.0000 0000000   0.0000 150.0000 13.29142284    12
CTC2_L_00362022-01
1 52759U 26191AC  26037.47795139  .00000000  00000+0  00000-0 0  9999
2 52759  95.0000 252.0000 0000000   0.0000 252.0000 13.29142284    19
CTC2_L_00362022-02
1 52760U 24914YL  26037.47795139  .00000000  00000+0  00000-0 0  9992
2 52760  95.0000 252.0000 0000000   0.0000 342.0000 13.29142284    11
CTC2_L_00362022-03
1 52761U 26925BO  26037.47795139  .00000000  00000+0  00000-0 0  9997
2 52761  95.0000 252.0000 0000000   0.0000  72.0000 13.29142284    12
CTC2_L_00362022-04
1 52762U 25381BQ  26037.47795139  .00000000  00000+0  00000-0 0  9993
2 52762  95.0000 252.0000 0000000   0.0000 162.0000 13.29142284    13
CTC2_L_00362023-01
1 52763U 22970GH  26037.47795139  .00000000  00000+0  00000-0 0  9995
2 52763  95.0000 264.0000 0000000   0.0000 264.0000 13.29142284    10
CTC2_L_00362023-02
1 52764U 26110IO  26037.47795139  .00000000  00000+0  00000-0 0  9996
2 52764  95.0000 264.0000 0000000   0.0000 354.0000 13.29142284    11
CTC2_L_00362023-03
1 52765U 22298HF  26037.47795139  .00000000  00000+0  00000-0 0  9990
2 52765  95.0000 264.0000 0000000   0.0000  84.0000 13.29142284    12
CTC2_L_00362023-04
1 52766U 24969IM  26037.47795139  .00000000  00000+0  00000-0 0  9998
2 52766  95.0000 264.0000 0000000   0.0000 174.0000 13.29142284    13
CTC2_L_00362024-01
1 52767U 22619HF  26037.47795139  .00000000  00000+0  00000-0 0  9999
2 52767  95.0000 276.0000 0000000   0.0000 276.0000 13.29142284    10
CTC2_L_00362024-02
1 52768U 25797QH  26037.47795139  .00000000  00000+0  00000-0 0  9990
2 52768  95.0000 276.0000 0000000   0.0000   6.0000 13.29142284    12
CTC2_L_00362024-03
1 52769U 24176FC  26037.47795139  .00000000  00000+0  00000-0 0  9991
2 52769  95.0000 276.0000 0000000   0.0000  96.0000 13.29142284    12
CTC2_L_00362024-04
1 52770U 24425YN  26037.47795139  .00000000  00000+0  00000-0 0  9990
2 52770  95.0000 276.0000 0000000   0.0000 186.0000 13.29142284    14
CTC2_L_00362025-01
1 52771U 25057NQ  26037.47795139  .00000000  00000+0  00000-0 0  9993
2 52771  95.0000 288.0000 0000000   0.0000 288.0000 13.29142284    11
CTC2_L_00362025-02
1 52772U 25287EA  26037.47795139  .00000000  00000+0  00000-0 0  9999
2 52772  95.0000 288.0000 0000000   0.0000  18.0000 13.29142284    13
CTC2_L_00362025-03
1 52773U 23465YT  26037.47795139  .00000000  00000+0  00000-0 0  9996
2 52773  95.0000 288.0000 0000000   0.0000 108.0000 13.29142284    14
CTC2_L_00362025-04
1 52774U 24903MB  26037.47795139  .00000000  00000+0  00000-0 0  9995
2 52774  95.0000 288.0000 0000000   0.0000 198.0000 13.29142284    14
CTC2_L_00362026-01
1 52775U 24739CI  26037.47795139  .00000000  00000+0  00000-0 0  9993
2 52775  95.0000 300.0000 0000000   0.0000 300.0000 13.29142284    15
CTC2_L_00362026-02
1 52776U 26784CK  26037.47795139  .00000000  00000+0  00000-0 0  9996
2 52776  95.0000 300.0000 0000000   0.0000  30.0000 13.29142284    16
CTC2_L_00362026-03
1 52777U 25852PR  26037.47795139  .00000000  00000+0  00000-0 0  9992
2 52777  95.0000 300.0000 0000000   0.0000 120.0000 13.29142284    17
CTC2_L_00362026-04
1 52778U 23249KK  26037.47795139  .00000000  00000+0  00000-0 0  9991
2 52778  95.0000 300.0000 0000000   0.0000 210.0000 13.29142284    18
CTC2_L_00362027-01
1 52779U 24635QA  26037.47795139  .00000000  00000+0  00000-0 0  9992
2 52779  95.0000 312.0000 0000000   0.0000 312.0000 13.29142284    15
CTC2_L_00362027-02
1 52780U 25319FK  26037.47795139  .00000000  00000+0  00000-0 0  9994
2 52780  95.0000 312.0000 0000000   0.0000  42.0000 13.29142284    17
CTC2_L_00362027-03
1 52781U 26510IN  26037.47795139  .00000000  00000+0  00000-0 0  9999
2 52781  95.0000 312.0000 0000000   0.0000 132.0000 13.29142284    18
CTC2_L_00362027-04
1 52782U 22213HZ  26037.47795139  .00000000  00000+0  00000-0 0  9996
2 52782  95.0000 312.0000 0000000   0.0000 222.0000 13.29142284    19
CTC2_L_00362028-01
1 52783U 25803YZ  26037.47795139  .00000000  00000+0  00000-0 0  9995
2 52783  95.0000 324.0000 0000000   0.0000 324.0000 13.29142284    16
CTC2_L_00362028-02
1 52784U 23890ID  26037.47795139  .00000000  00000+0  00000-0 0  9990
2 52784  95.0000 324.0000 0000000   0.0000  54.0000 13.29142284    17
CTC2_L_00362028-03
1 52785U 22042AY  26037.47795139  .00000000  00000+0  00000-0 0  9999
2 52785  95.0000 324.0000 0000000   0.0000 144.0000 13.29142284    18
CTC2_L_00362028-04
1 52786U 22459AW  26037.47795139  .00000000  00000+0  00000-0 0  9992
2 52786  95.0000 324.0000 0000000   0.0000 234.0000 13.29142284    19
CTC2_L_00362029-01
1 52787U 22140WJ  26037.47795139  .00000000  00000+0  00000-0 0  9990
2 52787  95.0000 336.0000 0000000   0.0000 336.0000 13.29142284    16
CTC2_L_00362029-02
1 52788U 22600BC  26037.47795139  .00000000  00000+0  00000-0 0  9992
2 52788  95.0000 336.0000 0000000   0.0000  66.0000 13.29142284    17
CTC2_L_00362029-03
1 52789U 26233CD  26037.47795139  .00000000  00000+0  00000-0 0  9999
2 52789  95.0000 336.0000 0000000   0.0000 156.0000 13.29142284    18
CTC2_L_00362029-04
1 52790U 22185NV  26037.47795139  .00000000  00000+0  00000-0 0  9993
2 52790  95.0000 336.0000 0000000   0.0000 246.0000 13.29142284    10
CTC2_L_00362030-01
1 52791U 26959ZI  26037.47795139  .00000000  00000+0  00000-0 0  9997
2 52791  95.0000 348.0000 0000000   0.0000 348.0000 13.29142284    17
CTC2_L_00362030-02
1 52792U 24290FG  26037.47795139  .00000000  00000+0  00000-0 0  9994
2 52792  95.0000 348.0000 0000000   0.0000  78.0000 13.29142284    18
CTC2_L_00362030-03
1 52793U 26074GN  26037.47795139  .00000000  00000+0  00000-0 0  9997
2 52793  95.0000 348.0000 0000000   0.0000 168.0000 13.29142284    19
CTC2_L_00362030-04
1 52794U 23876NW  26037.47795139  .00000000  00000+0  00000-0 0  9995
2 52794  95.0000 348.0000 0000000   0.0000 258.0000 13.29142284    10
